SENTINEL-2B             
1 42063U 17013A   20156.43130854 -.00000007  00000-0  14124-4 0  9993
2 42063  98.5699 230.8455 0000939  92.1851 267.9439 14.30816239169516
